NORAD_CAT_ID,OBJECT_NAME,OBJECT_TYPE,EPOCH,MEAN_MOTION,ECCENTRICITY,INCLINATION,RA_OF_ASC_NODE,ARG_OF_PERICENTER,MEAN_ANOMALY,BSTAR,MEAN_MOTION_DOT,MEAN_MOTION_DDOT,TLE_LINE0,TLE_LINE1,TLE_LINE2,SEMIMAJOR_AXIS,PERIOD,APOGEE,PERIGEE,DECAYED
55773.0,STARLINK-5833,PAYLOAD,2024-01-22 09:41:48,14.98331659,0.0002573,70.0003,24.2534,267.9339,92.1525,1.9196e-05,1.36e-06,0.0,0 STARLINK-5833,1 55773U 23028AJ  24022.40403061  .00000136  00000-0  19196-4 0  9990,2 55773  70.0003  24.2534 0002573 267.9339  92.1525 14.98331659 50104,6950.188,96.107,573.841,570.264,0.0
55773.0,STARLINK-5833,PAYLOAD,2024-01-23 03:19:17,14.98329414,0.0002624,70.0003,22.4016,268.0579,92.0279,1.215e-05,5.2e-07,0.0,0 STARLINK-5833,1 55773U 23028AJ  24023.13839186  .00000052  00000-0  12150-4 0  9992,2 55773  70.0003  22.4016 0002624 268.0579  92.0279 14.98329414 50217,6950.195,96.107,573.883,570.236,0.0
55773.0,STARLINK-5833,PAYLOAD,2024-01-23 06:31:33,14.98330611,0.0002606,70.0004,22.065,268.0933,91.9927,2.6783e-05,2.27e-06,0.0,0 STARLINK-5833,1 55773U 23028AJ  24023.27191075  .00000227  00000-0  26783-4 0  9996,2 55773  70.0004  22.0650 0002606 268.0933  91.9927 14.98330611 50233,6950.191,96.107,573.867,570.245,0.0
55773.0,STARLINK-5833,PAYLOAD,2024-01-23 09:43:48,14.9833335,0.000259,70.0005,21.7287,268.225,91.8612,5.6493e-05,5.81e-06,0.0,0 STARLINK-5833,1 55773U 23028AJ  24023.40542799  .00000581  00000-0  56493-4 0  9998,2 55773  70.0005  21.7287 0002590 268.2250  91.8612 14.98333350 50257,6950.183,96.107,573.848,570.247,0.0
55773.0,STARLINK-5833,PAYLOAD,2024-01-24 03:21:17,14.98333038,0.0002487,70.001,19.8786,264.6249,95.4626,2.2865e-05,1.8e-06,0.0,0 STARLINK-5833,1 55773U 23028AJ  24024.13978781  .00000180  00000-0  22865-4 0  9994,2 55773  70.0010  19.8786 0002487 264.6249  95.4626 14.98333038 50368,6950.183,96.107,573.777,570.32,0.0
55773.0,STARLINK-5833,PAYLOAD,2024-01-24 09:45:49,14.98333109,0.0002495,70.0011,19.2056,264.9819,95.1055,2.1025e-05,1.58e-06,0.0,0 STARLINK-5833,1 55773U 23028AJ  24024.40682738  .00000158  00000-0  21025-4 0  9990,2 55773  70.0011  19.2056 0002495 264.9819  95.1055 14.98333109 50405,6950.183,96.107,573.782,570.314,0.0
55773.0,STARLINK-5833,PAYLOAD,2024-01-25 03:23:18,14.98330438,0.0002397,70.0015,17.3548,261.1754,98.9133,-2.3061e-05,-3.68e-06,0.0,0 STARLINK-5833,1 55773U 23028AJ  24025.14118923 -.00000368  00000-0 -23061-4 0  9999,2 55773  70.0015  17.3548 0002397 261.1754  98.9133 14.98330438 50514,6950.192,96.107,573.722,570.391,0.0
55773.0,STARLINK-5833,PAYLOAD,2024-01-25 09:47:51,14.9832938,0.0002415,70.0014,16.681,263.6131,96.4754,-3.3328e-05,-4.91e-06,0.0,0 STARLINK-5833,1 55773U 23028AJ  24025.40823023 -.00000491  00000-0 -33328-4 0  9996,2 55773  70.0014  16.6810 0002415 263.6131  96.4754 14.98329380 50554,6950.195,96.107,573.738,570.381,0.0
55773.0,STARLINK-5833,PAYLOAD,2024-01-26 03:25:19,14.98330238,0.0002455,70.0014,14.8292,262.5267,97.5613,-2.3086e-05,-3.68e-06,0.0,0 STARLINK-5833,1 55773U 23028AJ  24026.14258866 -.00000368  00000-0 -23086-4 0  9998,2 55773  70.0014  14.8292 0002455 262.5267  97.5613 14.98330238 50662,6950.192,96.107,573.763,570.351,0.0
55773.0,STARLINK-5833,PAYLOAD,2024-01-26 08:13:43,14.98330496,0.0002443,70.0014,14.3243,262.126,97.9621,-1.7129e-05,-2.97e-06,0.0,0 STARLINK-5833,1 55773U 23028AJ  24026.34286832 -.00000297  00000-0 -17129-4 0  9996,2 55773  70.0014  14.3243 0002443 262.1260  97.9621 14.98330496 50691,6950.191,96.107,573.754,570.358,0.0
55773.0,STARLINK-5833,PAYLOAD,2024-01-27 01:51:11,14.98341479,0.0002698,70.0009,12.4728,258.6291,101.4565,0.00011165,1.24e-05,0.0,0 STARLINK-5833,1 55773U 23028AJ  24027.07721400  .00001240  00000-0  11165-3 0  9992,2 55773  70.0009  12.4728 0002698 258.6291 101.4565 14.98341479 50802,6950.157,96.106,573.898,570.147,0.0
55773.0,STARLINK-5833,PAYLOAD,2024-01-27 08:15:43,14.98340192,0.0002646,70.001,11.7978,265.2481,94.8376,0.00020602,2.367e-05,0.0,0 STARLINK-5833,1 55773U 23028AJ  24027.34425085  .00002367  00000-0  20602-3 0  9999,2 55773  70.0010  11.7978 0002646 265.2481  94.8376 14.98340192 50841,6950.161,96.106,573.865,570.187,0.0
55773.0,STARLINK-5833,PAYLOAD,2024-01-27 22:40:57,14.98326166,0.0002802,70.0008,10.2838,266.4128,93.6711,-8.3477e-05,-1.089e-05,0.0,0 STARLINK-5833,1 55773U 23028AJ  24027.94510677 -.00001089  00000-0 -83477-4 0  9999,2 55773  70.0008  10.2838 0002802 266.4128  93.6711 14.98326166 50937,6950.205,96.107,574.017,570.122,0.0
55773.0,STARLINK-5833,PAYLOAD,2024-01-28 05:05:29,14.98321212,0.0002623,70.0018,9.6122,263.4075,96.6786,-0.00010135,-1.302e-05,0.0,0 STARLINK-5833,1 55773U 23028AJ  24028.21215153 -.00001302  00000-0 -10135-3 0  9999,2 55773  70.0018   9.6122 0002623 263.4075  96.6786 14.98321212 50971,6950.22,96.108,573.908,570.262,0.0
55773.0,STARLINK-5833,PAYLOAD,2024-01-28 08:17:46,14.98318508,0.0002852,70.0009,9.2741,268.5953,91.488,-0.00014734,-1.85e-05,0.0,0 STARLINK-5833,1 55773U 23028AJ  24028.34567529 -.00001850  00000-0 -14734-3 0  9997,2 55773  70.0009   9.2741 0002852 268.5953  91.4880 14.98318508 50993,6950.228,96.108,574.076,570.111,0.0
55773.0,STARLINK-5833,PAYLOAD,2024-01-28 22:42:58,14.98320101,0.0002702,70.0009,7.7556,284.188,75.8979,2.3571e-05,1.88e-06,0.0,0 STARLINK-5833,1 55773U 23028AJ  24028.94651027  .00000188  00000-0  23571-4 0  9991,2 55773  70.0009   7.7556 0002702 284.1880  75.8979 14.98320101 51085,6950.224,96.108,573.966,570.211,0.0
55773.0,STARLINK-5833,PAYLOAD,2024-01-29 03:31:22,14.98330305,0.0002427,70.0011,7.2517,266.012,94.0762,-9.3054e-05,-1.203e-05,0.0,0 STARLINK-5833,1 55773U 23028AJ  24029.14678768 -.00001203  00000-0 -93054-4 0  9999,2 55773  70.0011   7.2517 0002427 266.0120  94.0762 14.98330305 51114,6950.192,96.107,573.744,570.37,0.0
55773.0,STARLINK-5833,PAYLOAD,2024-01-29 08:19:46,14.98333651,0.0002415,70.0018,6.7482,267.7315,92.3567,-7.8721e-05,-1.032e-05,0.0,0 STARLINK-5833,1 55773U 23028AJ  24029.34706525 -.00001032  00000-0 -78721-4 0  9998,2 55773  70.0018   6.7482 0002415 267.7315  92.3567 14.98333651 51141,6950.182,96.107,573.725,570.368,0.0
55773.0,STARLINK-5833,PAYLOAD,2024-01-30 08:21:47,14.98322844,0.0002378,70.0021,4.2231,274.4546,85.6341,0.00018881,2.16e-05,0.0,0 STARLINK-5833,1 55773U 23028AJ  24030.34846745  .00002160  00000-0  18881-3 0  9990,2 55773  70.0021   4.2231 0002378 274.4546  85.6341 14.98322844 51292,6950.215,96.107,573.733,570.427,0.0
55773.0,STARLINK-5833,PAYLOAD,2024-01-30 22:47:00,14.98330376,0.0002477,70.002,2.7081,278.403,81.6848,2.5526e-05,2.12e-06,0.0,0 STARLINK-5833,1 55773U 23028AJ  24030.94930812  .00000212  00000-0  25526-4 0  9996,2 55773  70.0020   2.7081 0002477 278.4030  81.6848 14.98330376 51386,6950.192,96.107,573.778,570.335,0.0
55773.0,STARLINK-5833,PAYLOAD,2024-01-31 08:23:50,14.98311874,0.0002652,70.002,1.6977,276.7806,83.3051,-0.00017269,-2.152e-05,0.0,0 STARLINK-5833,1 55773U 23028AJ  24031.34988688 -.00002152  00000-0 -17269-3 0  9996,2 55773  70.0020   1.6977 0002652 276.7806  83.3051 14.98311874 51449,6950.249,96.108,573.957,570.271,0.0
55773.0,STARLINK-5833,PAYLOAD,2024-01-31 21:12:54,14.98315342,0.0003384,70.0003,0.3522,271.7492,88.3279,-0.00021603,-2.669e-05,0.0,0 STARLINK-5833,1 55773U 23028AJ  24031.88396964 -.00002669  00000-0 -21603-3 0  9995,2 55773  70.0003   0.3522 0003384 271.7492  88.3279 14.98315342 51521,6950.238,96.108,574.455,569.751,0.0
55773.0,STARLINK-5833,PAYLOAD,2024-02-01 02:01:19,14.98318955,0.0002983,70.0013,359.8456,276.1779,83.904,-0.00016375,-2.046e-05,0.0,0 STARLINK-5833,1 55773U 23028AJ  24032.08424820 -.00002046  00000-0 -16375-3 0  9990,2 55773  70.0013 359.8456 0002983 276.1779  83.9040 14.98318955 51554,6950.227,96.108,574.165,570.019,0.0
55773.0,STARLINK-5833,PAYLOAD,2024-02-01 06:49:42,14.9832558,0.0002775,70.0014,359.3402,274.6975,85.3867,-0.00010138,-1.302e-05,0.0,0 STARLINK-5833,1 55773U 23028AJ  24032.28452318 -.00001302  00000-0 -10138-3 0  9990,2 55773  70.0014 359.3402 0002775 274.6975  85.3867 14.98325580 51589,6950.207,96.107,574.0,570.143,0.0
55773.0,STARLINK-5833,PAYLOAD,2024-02-01 21:14:54,14.98321014,0.0002879,70.0012,357.8252,271.0166,89.0663,0.00019429,2.225e-05,0.0,0 STARLINK-5833,1 55773U 23028AJ  24032.88535800  .00002225  00000-0  19429-3 0  9999,2 55773  70.0012 357.8252 0002879 271.0166  89.0663 14.98321014 51674,6950.221,96.108,574.087,570.085,0.0
55773.0,STARLINK-5833,PAYLOAD,2024-02-02 03:39:26,14.98331068,0.0002903,70.0007,357.1538,268.1566,91.9261,0.00011398,1.267e-05,0.0,0 STARLINK-5833,1 55773U 23028AJ  24033.15239515  .00001267  00000-0  11398-3 0  9996,2 55773  70.0007 357.1538 0002903 268.1566  91.9261 14.98331068 51718,6950.19,96.107,574.072,570.037,0.0
55773.0,STARLINK-5833,PAYLOAD,2024-02-02 06:51:42,14.98333818,0.0002828,70.0007,356.8168,262.9202,97.1635,0.00019883,2.28e-05,0.0,0 STARLINK-5833,1 55773U 23028AJ  24033.28591047  .00002280  00000-0  19883-3 0  9994,2 55773  70.0007 356.8168 0002828 262.9202  97.1635 14.98333818 51738,6950.181,96.107,574.012,570.081,0.0
55773.0,STARLINK-5833,PAYLOAD,2024-02-02 21:16:55,14.9833333,0.0002723,70.0007,355.3018,262.0711,98.0139,0.00014863,1.681e-05,0.0,0 STARLINK-5833,1 55773U 23028AJ  24033.88675280  .00001681  00000-0  14863-3 0  9999,2 55773  70.0007 355.3018 0002723 262.0711  98.0139 14.98333330 51824,6950.183,96.107,573.94,570.155,0.0
55773.0,STARLINK-5833,PAYLOAD,2024-02-03 03:41:27,14.98334084,0.0002733,70.0007,354.6292,260.1273,99.9578,0.0001465,1.656e-05,0.0,0 STARLINK-5833,1 55773U 23028AJ  24034.15379138  .00001656  00000-0  14650-3 0  9999,2 55773  70.0007 354.6292 0002733 260.1273  99.9578 14.98334084 51861,6950.18,96.107,573.945,570.146,0.0
55773.0,STARLINK-5833,PAYLOAD,2024-02-03 06:53:43,14.98336157,0.0002699,70.0008,354.2927,258.9696,101.116,0.00016437,1.869e-05,0.0,0 STARLINK-5833,1 55773U 23028AJ  24034.28730896  .00001869  00000-0  16437-3 0  9996,2 55773  70.0008 354.2927 0002699 258.9696 101.1160 14.98336157 51886,6950.174,96.107,573.915,570.163,0.0
